0 DMSP 5D-2 F13 DEB
1 40400U 95015M   19008.83218313 +.00000332 +00000-0 +12872-3 0  9996
2 40400 098.6505 023.9421 0154898 127.7074 233.8267 14.29934273201869
0 DMSP 5D-2 F13 DEB
1 40400U 95015M   19008.48231350 +.00000333 +00000-0 +12918-3 0  9995
2 40400 098.6505 023.5944 0154892 128.7283 232.7863 14.29934018201814
0 DMSP 5D-2 F13 DEB
1 40401U 95015N   19008.14162524 +.00000761 +00000-0 +50271-3 0  9994
2 40401 098.8357 342.7504 0060705 205.8068 154.0067 14.03727242198040
0 DMSP 5D-2 F13 DEB
1 40402U 95015P   19008.99955038  .00000240  00000-0  11680-3 0  9991
2 40402  98.7576  18.1951 0160170 349.2241  10.5518 14.20548099202432
0 DMSP 5D-2 F13 DEB
1 40405U 95015S   19009.23635484  .00000276  00000-0  16316-3 0  9992
2 40405  98.8650   9.2046 0137725  85.6211 276.0682 14.10724665202179
0 DMSP 5D-2 F13 DEB
1 40405U 95015S   19008.45618035 +.00000256 +00000-0 +15314-3 0  9993
2 40405 098.8649 008.4348 0137715 087.8176 273.8757 14.10724083199139
0 DMSP 5D-2 F13 DEB
1 40405U 95015S   19008.81080520 +.00000260 +00000-0 +15486-3 0  9990
2 40405 098.8650 008.7847 0137717 086.8203 274.8714 14.10724314199186
0 DMSP 5D-2 F13 DEB
1 40406U 95015T   19008.76612519 +.00002999 +00000-0 +11636-2 0  9997
2 40406 098.7269 028.0290 0011324 182.8871 177.2248 14.30668035201239
0 DMSP 5D-2 F13 DEB
1 40407U 95015U   19008.96037466 +.00000030 +00000-0 +37611-4 0  9999
2 40407 098.7996 012.0204 0006051 357.5849 002.5294 14.15913133199986
0 DMSP 5D-2 F13 DEB
1 40408U 95015V   19009.38531274  .00008328  00000-0  23558-2 0  9994
2 40408  98.7792  45.5121 0046006 143.1693 217.2672 14.45227370205404
0 DMSP 5D-2 F13 DEB
1 40408U 95015V   19008.34680624 +.00008428 +00000-0 +23843-2 0  9991
2 40408 098.7788 044.4386 0046383 145.9974 214.4204 14.45209693202270
0 DMSP 5D-2 F13 DEB
1 40409U 95015W   19008.48168087 +.00000330 +00000-0 +18379-3 0  9994
2 40409 098.7902 013.5299 0001703 338.6015 021.5089 14.17748629200073
0 DMSP 5D-2 F13 DEB
1 40409U 95015W   19009.46971569  .00000339  00000-0  18805-3 0  9993
2 40409  98.7903  14.5076 0001673 335.6591  24.4504 14.17749449203203
0 DMSP 5D-2 F13 DEB
1 40410U 95015X   19009.47374532  .00000142  00000-0  96356-4 0  9993
2 40410  98.8186  10.9116 0020090  79.9569 280.3870 14.14589776202740
0 DMSP 5D-2 F13 DEB
1 40410U 95015X   19007.98838606 +.00000134 +00000-0 +92512-4 0  9995
2 40410 098.8184 009.4449 0020061 084.0639 276.2819 14.14589199199553
0 DMSP 5D-2 F13 DEB
1 40411U 95015Y   19008.95684239 +.00000337 +00000-0 +20870-3 0  9997
2 40411 098.8429 005.0597 0025982 147.6325 212.6447 14.11636193199327
0 DMSP 5D-2 F13 DEB
1 40411U 95015Y   19008.95684239  .00000337  00000-0  20870-3 0  9997
2 40411  98.8429   5.0597 0025982 147.6325 212.6447 14.11636193202243
0 DMSP 5D-2 F13 DEB
1 40412U 95015Z   19009.49798964  .00000017  00000-0  29241-4 0  9996
2 40412  98.7721  18.5951 0018377 261.7875  98.1217 14.19289254203499
0 DMSP 5D-2 F13 DEB
1 40415U 95015AC  19008.93300223 +.00000359 +00000-0 +19722-3 0  9995
2 40415 098.7894 014.0999 0007347 233.0656 126.9847 14.17832411200145
0 DMSP 5D-2 F13 DEB
1 40416U 95015AD  19008.22540374 +.00000318 +00000-0 +17944-3 0  9990
2 40416 098.7918 012.3932 0004307 345.2906 014.8143 14.17258507199978
0 DMSP 5D-2 F13 DEB
1 40418U 95015AF  19009.19669722  .00000345  00000-0  18194-3 0  9996
2 40418  98.7722  19.1220 0009504 282.2356  77.7756 14.20307606202276
0 COSMOS 2503
1 40420U 15009A   19009.19251580  .00000358  00000-0  34821-4 0  9993
2 40420  97.8333 340.0253 0008132 321.9934  38.0719 14.98670320211560
0 COSMOS 2503
1 40420U 15009A   19009.45958376  .00000423  00000-0  40251-4 0  9996
2 40420  97.8334 340.2935 0008076 321.0148  39.0491 14.98671089211601
0 COSMOS 2503
1 40420U 15009A   19009.86018672  .00000421  00000-0  40072-4 0  9996
2 40420  97.8336 340.6959 0008061 319.6760  40.3872 14.98671467211664
0 ABS 3A
1 40424U 15010A   19008.70836663 -.00000023 +00000-0 +00000-0 0  9994
2 40424 000.0217 039.9903 0001258 159.1540 160.8509 01.00270352014172
0 ABS 3A
1 40424U 15010A   19007.71109951 -.00000024 +00000-0 +00000-0 0  9998
2 40424 000.0212 035.5438 0001292 163.7324 160.7189 01.00270683014171
0 EUTE 115 WEST B(SATMEX 7
1 40425U 15010B   19009.01837973 -.00000021  00000-0  00000+0 0  9992
2 40425   0.0018 150.8552 0000252 170.4103  38.7327  1.00269683 14209
0 EUTE 115 WEST B(SATMEX 7
1 40425U 15010B   19008.02115990 -.00000022 +00000-0 +00000-0 0  9992
2 40425 000.0423 201.5732 0000362 081.3333 077.0756 01.00268709014154
0 DMSP 5D-2 F13 DEB
1 40434U 95015AL  19008.34120073 +.00000561 +00000-0 +32607-3 0  9996
2 40434 098.8195 338.7712 0191449 264.3300 093.6010 14.03857783197286
0 DMSP 5D-2 F13 DEB
1 40434U 95015AL  19009.33900713  .00000582  00000-0  33753-3 0  9999
2 40434  98.8197 339.7401 0191412 261.5269  96.4164 14.03859020200155
0 DMSP 5D-2 F13 DEB
1 40435U 95015AM  19008.28805197 +.00004383 +00000-0 +24785-2 0  9990
2 40435 098.2997 308.1521 0038508 236.3306 123.4192 14.10222921197631
0 DMSP 5D-2 F13 DEB
1 40438U 95015AQ  19008.90433206 +.00001361 +00000-0 +71885-3 0  9997
2 40438 098.7608 356.1002 0031258 096.1226 264.3510 14.15251733198732
0 DMSP 5D-2 F13 DEB
1 40439U 95015AR  19008.63670337 +.00010410 +00000-0 +20975-2 0  9994
2 40439 099.0156 077.2548 0023679 217.3277 142.6277 14.61539876202947
0 DMSP 5D-2 F13 DEB
1 40442U 95015AU  19008.93164572 -.00000023 +00000-0 +10954-4 0  9998
2 40442 098.8126 008.9532 0011935 059.4219 300.8130 14.14191399198955
0 DMSP 5D-2 F13 DEB
1 40443U 95015AV  19008.28220779 -.00000018 +00000-0 +11980-4 0  9993
2 40443 098.7623 025.2179 0039409 282.1090 077.5674 14.21788784199853
0 DMSP 5D-2 F13 DEB
1 40443U 95015AV  19009.47855790 -.00000021  00000-0  10597-4 0  9999
2 40443  98.7623  26.4058 0039402 278.5646  81.1068 14.21788847203833
0 DMSP 5D-2 F13 DEB
1 40444U 95015AW  19009.55050012  .00003490  00000-0  11222-2 0  9999
2 40444  98.7886  47.7693 0040979 186.9254 173.1372 14.39529993205391
0 DMSP 5D-2 F13 DEB
1 40447U 95015AZ  19008.95451111  .00000172  00000-0  10063-3 0  9997
2 40447  98.7727  20.3854 0015393 273.0622  86.8793 14.20495721202332
0 DMSP 5D-2 F13 DEB
1 40447U 95015AZ  19008.95451111 +.00000172 +00000-0 +10063-3 0  9997
2 40447 098.7727 020.3854 0015393 273.0622 086.8793 14.20495721199720
0 DMSP 5D-2 F13 DEB
1 40448U 95015BA  19009.14140987  .00000568  00000-0  35865-3 0  9992
2 40448  98.8322 350.9281 0046604 180.2112 179.9045 14.07589531200423
0 DMSP 5D-2 F13 DEB
1 40448U 95015BA  19008.14624425 +.00000629 +00000-0 +39414-3 0  9997
2 40448 098.8321 349.9551 0046596 183.0914 176.9974 14.07588227197739
0 DMSP 5D-2 F13 DEB
1 40449U 95015BB  19008.16435266 +.00000650 +00000-0 +37540-3 0  9995
2 40449 098.7697 350.2570 0030367 108.2246 252.2236 14.12216956198392
0 DMSP 5D-2 F13 DEB
1 40450U 95015BC  19008.48258119 +.00000191 +00000-0 +10834-3 0  9999
2 40450 098.7639 019.2484 0015384 285.9977 073.9505 14.21007135199689
0 DMSP 5D-2 F13 DEB
1 40450U 95015BC  19008.83464237 +.00000189 +00000-0 +10737-3 0  9997
2 40450 098.7639 019.5976 0015386 284.9348 075.0125 14.21007269199736
0 DMSP 5D-2 F13 DEB
1 40450U 95015BC  19009.46835244  .00000184  00000-0  10512-3 0  9993
2 40450  98.7640  20.2262 0015375 283.0110  76.9350 14.21007557200788
0 DMSP 5D-2 F13 DEB
1 40461U 95015BD  19009.30624570  .00001842  00000-0  64238-3 0  9992
2 40461  98.7964  55.3806 0052163 193.4002 166.5800 14.35799395204257
0 DMSP 5D-2 F13 DEB
1 40462U 95015BE  19009.16233906  .00001172  00000-0  71155-3 0  9998
2 40462  98.8750 357.5340 0055518 197.1028 162.8272 14.07468828200451
0 DMSP 5D-2 F13 DEB
1 40462U 95015BE  19008.73580270 +.00001193 +00000-0 +72403-3 0  9999
2 40462 098.8749 357.1150 0055580 198.3659 161.5504 14.07467802196668
0 DMSP 5D-2 F13 DEB
1 40463U 95015BF  19008.92451942 +.00000968 +00000-0 +37045-3 0  9996
2 40463 098.7611 050.8430 0055768 202.2583 157.6179 14.32128056200138
0 DMSP 5D-2 F13 DEB
1 40463U 95015BF  19008.57518772 +.00000962 +00000-0 +36819-3 0  9994
2 40463 098.7612 050.4903 0055753 203.2704 156.5954 14.32127324200080
0 DMSP 5D-2 F13 DEB
1 40464U 95015BG  19008.05909608 +.00000182 +00000-0 +15656-3 0  9990
2 40464 098.8336 326.1696 0095901 253.8758 105.1832 13.96461709195160
0 DMSP 5D-2 F13 DEB
1 40465U 95015BH  19008.16050122 +.00000559 +00000-0 +35564-3 0  9999
2 40465 098.8812 358.6006 0048047 193.3653 166.6246 14.07270685196601
0 DMSP 5D-2 F13 DEB
1 40467U 95015BK  19008.80623445 +.00007210 +00000-0 +87240-3 0  9995
2 40467 098.7760 134.7544 0083756 285.3238 073.8728 14.81541356205457
0 DMSP 5D-2 F13 DEB
1 40468U 95015BL  19009.28703050  .00000651  00000-0  32153-3 0  9995
2 40468  98.7837  22.5320 0015184 236.4977 123.4750 14.20830831200753
0 DMSP 5D-2 F13 DEB
1 40470U 95015BN  19009.39591987  .00000304  00000-0  21008-3 0  9996
2 40470  98.8499 349.7461 0054028 188.3410 171.6865 14.05747056200311
0 DMSP 5D-2 F13 DEB
1 40470U 95015BN  19008.39944991 +.00000280 +00000-0 +19558-3 0  9992
2 40470 098.8499 348.7728 0054019 191.1995 168.7975 14.05746355196736
0 DMSP 5D-2 F13 DEB
1 40470U 95015BN  19008.89768489 +.00000288 +00000-0 +20058-3 0  9998
2 40470 098.8499 349.2595 0054023 189.7748 170.2374 14.05746693196802
0 DMSP 5D-2 F13 DEB
1 40471U 95015BP  19009.22048356  .00000562  00000-0  33035-3 0  9995
2 40471  98.8272   1.9146 0027414 143.7312 216.5724 14.11868847200304
0 DMSP 5D-2 F13 DEB
1 40472U 95015BQ  19008.73063040 +.00002396 +00000-0 +37841-3 0  9994
2 40472 098.7018 113.3700 0133439 319.4842 039.6485 14.67660808204480
0 DMSP 5D-2 F13 DEB
1 40476U 95015BU  19009.32423460  .00001264  00000-0  37398-3 0  9990
2 40476  98.6084  47.5359 0094753 118.8489 242.2251 14.42612968203688
